HST                     
1 20580U 90037B   22174.58719863  .00001794  00000+0  95104-4 0  9990
2 20580  28.4692 128.1566 0002749 101.9382  62.4186 15.10599991567142
POLAR                   
1 23802U 96013A   22174.18563937  .00000204  00000+0  00000+0 0  9996
2 23802  78.7651 241.5582 5814397 258.6765  34.3140  1.29847326125964
SWAS                    
1 25560U 98071A   22174.53305233  .00001270  00000+0  12487-3 0  9997
2 25560  69.8987 330.8620 0009980 300.1722  59.8446 14.94799196278934
CXO                     
1 25867U 99040B   22175.97948555  .00000144  00000+0  00000+0 0  9996
2 25867  45.1249 234.5054 8831675 234.4985   0.0539  0.37805525 11825
XMM-NEWTON              
1 25989U 99066A   22176.47337392 -.00000112  00000+0  00000+0 0  9992
2 25989  70.0931 304.5457 6031129  86.7486   0.1913  0.50130710 15720
TERRA                   
1 25994U 99068A   22174.51674837  .00000241  00000+0  63260-4 0  9995
2 25994  98.1366 246.2982 0001264  96.4563 321.0001 14.57146423197509
CLUSTER II-FM7 (SAMBA)  
1 26410U 00041A   22175.66743561  .00000625  00000+0  00000+0 0  9994
2 26410 134.2188 347.8530 5658732 199.4679 359.6254  0.44229948 13856
CLUSTER II-FM6 (SALSA)  
1 26411U 00041B   22175.63624127  .00000928  00000+0  00000+0 0  9994
2 26411 136.4812 351.4529 7311555 204.2548 359.6491  0.44224122 13880
CLUSTER II-FM5 (RUMBA)  
1 26463U 00045A   22175.64021821  .00000966  00000+0  00000+0 0  9990
2 26463 140.0190 351.7408 6824161 205.0769 359.5734  0.44224223 13781
CLUSTER II-FM8 (TANGO)  
1 26464U 00045B   22175.64602137  .00000626  00000+0  00000+0 0  9999
2 26464 134.2251 347.8442 5657537 199.4597 359.6301  0.44219574 13867
ODIN                    
1 26702U 01007A   22174.48577020  .00003787  00000+0  23663-3 0  9991
2 26702  97.5196 189.1151 0008472 267.0970  92.9290 15.10034474167187
TIMED                   
1 26998U 01055B   22174.42520347  .00000726  00000+0  81749-4 0  9995
2 26998  74.0726 267.7455 0000862 227.2071 132.9038 14.88691523113890
RHESSI                  
1 27370U 02004A   22174.47204082  .00020982  00000+0  44646-3 0  9995
2 27370  38.0324 325.0289 0007168 275.0467  84.9489 15.44230093127545
INTEGRAL                
1 27540U 02048A   22174.29649682  .00000364  00000+0  00000+0 0  9995
2 27540  75.4294  59.0530 8914077 298.4219 220.0577  0.37571211 21164
CORIOLIS                
1 27640U 03001A   22174.52896230  .00000059  00000+0  48809-4 0  9990
2 27640  98.7166 183.4138 0015419  81.0037  31.5924 14.19134374  7812
SORCE                   
1 27651U 03004A   22174.43178066  .00000841  00000+0  99488-4 0  9993
2 27651  39.9937 184.1099 0022810 157.3975 202.7824 14.89934074 53962
MOST                    
1 27843U 03031D   22174.48133319  .00000045  00000+0  40878-4 0  9998
2 27843  98.7066 181.9972 0010925 126.8011 233.4170 14.20687610984102
SCISAT 1                
1 27858U 03036A   22174.40102024  .00000339  00000+0  52484-4 0  9992
2 27858  73.9313 172.3478 0008785 218.2622 141.7930 14.77569776 16316
SWIFT                   
1 28485U 04047A   22174.58920454  .00002962  00000+0  16483-3 0  9998
2 28485  20.5566 267.3226 0010731  18.2294 341.8524 15.06468587964476
CLOUDSAT                
1 29107U 06016A   22174.48892842  .00000196  00000+0  47854-4 0  9990
2 29107  98.3284 134.6918 0002102 301.0425  59.0570 14.62985591860074
CALIPSO                 
1 29108U 06016B   22174.48855997  .00000657  00000+0  13785-3 0  9998
2 29108  98.3254 134.2540 0001547  79.2743 280.8632 14.62955789859929
HINODE (SOLAR-B)        
1 29479U 06041A   22174.52097219  .00000418  00000+0  87103-4 0  9998
2 29479  98.1203 189.6085 0017889 202.6293 157.4123 14.64836192841640
SJ-6C                   
1 29505U 06046A   22174.44512725  .00001665  00000+0  15309-3 0  9991
2 29505  97.7764 195.4311 0006039  95.4990 264.6920 14.96128029853592
SJ-6D                   
1 29506U 06046B   22174.57219463  .00000186  00000+0  22733-4 0  9996
2 29506  97.7970 195.7044 0002089 150.2723 209.8610 14.94057281853050
AGILE                   
1 31135U 07013A   22174.29936662  .00010268  00000+0  23251-3 0  9995
2 31135   2.4665 186.0981 0010258 188.3570 171.6314 15.37991171477857
AIM                     
1 31304U 07015A   22173.93350328  .00007687  00000+0  38372-3 0  9995
2 31304  97.8552  93.3396 0005290  19.1795 340.9636 15.17789649832023
FGRST (GLAST)           
1 33053U 08029A   22174.57117086  .00001290  00000+0  55868-4 0  9991
2 33053  25.5821 125.4548 0011736 250.5946 109.3321 15.12208018774620
WISE                    
1 36119U 09071A   22174.39667946  .00005631  00000+0  17516-3 0  9990
2 36119  97.2390 208.7019 0000286 315.0137  45.1082 15.33706570696418
SDO                     
1 36395U 10005A   22172.34493785 -.00000071  00000+0  00000+0 0  9996
2 36395  31.6643 109.1594 0001390 262.8427 279.6799  1.00270495 45459
CRYOSAT 2               
1 36508U 10013A   22174.59383856  .00000082  00000+0  19487-4 0  9992
2 36508  92.0361 285.5686 0003761 196.5553 163.5532 14.51966325647022
X-SAT                   
1 37389U 11015C   22174.40869513  .00000035  00000+0  32771-4 0  9991
2 37389  98.3337 207.3717 0013054 297.7825  62.2032 14.24426999581059
GCOM-W1 (SHIZUKU)       
1 38337U 12025A   22174.41572010  .00000336  00000+0  84741-4 0  9999
2 38337  98.2032 114.8175 0001286  92.7200  17.7144 14.57092299537180
NUSTAR                  
1 38358U 12031A   22171.33009945  .00002486  00000+0  18152-3 0  9999
2 38358   6.0275 342.8121 0011306  16.4483 343.6013 14.89379508545285
NEOSSAT                 
1 39089U 13009D   22174.52626776  .00000105  00000+0  52271-4 0  9995
2 39089  98.4225  10.6811 0010063 258.6003 101.4052 14.34666993488084
BRITE-AUSTRIA           
1 39091U 13009F   22174.48831600  .00000116  00000+0  55397-4 0  9991
2 39091  98.4058  11.6368 0009263 259.2702 100.7441 14.35277225488308
IRIS                    
1 39197U 13033A   22174.53620191  .00000585  00000+0  85419-4 0  9990
2 39197  97.9700   0.3253 0027664  12.4179 347.7708 14.79251119484872
HISAKI (SPRINT-A)       
1 39253U 13049A   22174.34679004  .00000120  00000+0  76318-4 0  9999
2 39253  29.7209  54.8019 0136890 105.0185 256.5581 13.55283239433909
CASSIOPE                
1 39265U 13055A   22174.55968925  .00006828  00000+0  18409-3 0  9992
2 39265  80.9661 260.8644 0621334 300.1555  53.9453 14.38765497453213
STSAT-3                 
1 39422U 13066G   22174.46200309  .00001006  00000+0  10804-3 0  9998
2 39422  97.4693 179.2882 0020950 261.6491  98.2338 14.90514315466734
SWARM B                 
1 39451U 13067A   22174.52875938  .00001641  00000+0  73593-4 0  9994
2 39451  87.7508  59.4982 0002524  86.9659 273.1874 15.20506543461859
SWARM A                 
1 39452U 13067B   22174.54335644  .00003498  00000+0  10450-3 0  9996
2 39452  87.3619 222.3622 0003415  81.7373 278.4266 15.34222532482862
SWARM C                 
1 39453U 13067C   22174.14898723  .00003458  00000+0  10340-3 0  9999
2 39453  87.3468 221.9608 0003422  81.7990 278.3650 15.34185525482762
BRITE-CA1 (TORONTO)     
1 40020U 14033L   22174.41938295  .00000510  00000+0  94675-4 0  9994
2 40020  97.7790 333.0753 0085550 244.0257 115.2117 14.67045783428533
OCO 2                   
1 40059U 14035A   22174.59697349  .00000272  00000+0  70338-4 0  9994
2 40059  98.2025 115.7275 0001490  83.5937 276.5431 14.57092391424226
BRITE-PL2 (HEWELIUSZ)   
1 40119U 14049B   22174.54231651  .00000863  00000+0  10699-3 0  9990
2 40119  97.8839 270.1046 0016358 218.4310 141.5741 14.85141568424919
RESURS P2               
1 40360U 14087A   22174.48217135  .00005362  00000+0  15158-3 0  9998
2 40360  97.2066 259.2629 0010831  72.9828  53.1914 15.36695816419185
MMS 1                   
1 40482U 15011A   22168.29298833 -.00000840  00000+0  00000+0 0  9990
2 40482  32.2401 105.0633 8676338  52.2356  82.3064  0.28312591 13305
MMS 2                   
1 40483U 15011B   22168.29298833 -.00000840  00000+0  00000+0 0  9991
2 40483  32.2382 105.0681 8677524  52.2310  82.3133  0.28312611 13361
MMS 3                   
1 40484U 15011C   22168.29298833 -.00000839  00000+0  00000+0 0  9990
2 40484  32.2415 105.0835 8676078  52.2412  82.3623  0.28325920 13042
MMS 4                   
1 40485U 15011D   22171.15213201 -.00000630  00000+0  00000+0 0  9995
2 40485  32.1810 104.8344 8698182  52.7166  13.7170  0.28461797 13266
ASTROSAT                
1 40930U 15052A   22172.99685851  .00001161  00000+0  73220-4 0  9990
2 40930   5.9959 145.8549 0009038 222.8566 137.0857 14.76654413363826
DAMPE                   
1 41173U 15078A   22174.58096627  .00000774  00000+0  34375-4 0  9999
2 41173  97.3763 165.2573 0013650 171.0501 299.2479 15.24450129362514
PISAT                   
1 41784U 16059B   22174.36035526  .00000524  00000+0  10821-3 0  9996
2 41784  97.9150 217.4820 0032582 148.7579 211.5569 14.63917727306557
HXMT (HUIYAN)           
1 42758U 17034A   22174.56573728  .00003075  00000+0  19643-3 0  9990
2 42758  43.0180 314.7182 0010179 315.2288 138.0438 15.10502542277106
FLYING LAPTOP           
1 42831U 17042G   22174.49921183  .00001347  00000+0  13851-3 0  9990
2 42831  97.4232  28.6048 0013530 354.8690   5.2392 14.91800287268997
PICSAT                  
1 43132U 18004X   22173.78577763  .00012395  00000+0  40883-3 0  9996
2 43132  97.3719 250.1339 0006559 350.9911   9.1212 15.31556717247220
ZHANGZHENG-1 (CSES)     
1 43194U 18015C   22174.59082588  .00007465  00000+0  34247-3 0  9991
2 43194  97.5234 305.3349 0012440  77.9180  50.6424 15.20658874243559
ICON                    
1 44628U 19068A   22174.44951411  .00001782  00000+0  14827-3 0  9995
2 44628  26.9886 269.4513 0018660  52.2480 307.9766 14.92883562147465
SALSAT                  
1 46495U 20068K   22174.48136689  .00001108  00000+0  83454-4 0  9992
2 46495  97.7293 115.7836 0014606 255.8528 104.1075 15.04539217 95098
IXPE                    
1 49954U 21121A   22174.47794693  .00002229  00000+0  14276-3 0  9990
2 49954   0.2312 338.3817 0011096  21.9910 359.6286 14.91403452 29332
